CTC2_L_00154016-03
1 77198U 23796LJ  26037.47791667  .00000000  00000+0  00000-0 0  9993
2 77198  55.0000 180.0000 0000000   0.0000   0.0000 14.98994923    12
CTC2_L_00154016-04
1 77199U 26846VE  26037.47791667  .00000000  00000+0  00000-0 0  9993
2 77199  55.0000 180.0000 0000000   0.0000  90.0000 14.98994923    12
CTC2_L_00154017-01
1 77200U 25957KM  26037.47791667  .00000000  00000+0  00000-0 0  9998
2 77200  55.0000 192.0000 0000000   0.0000 192.0000 14.98994923    11
CTC2_L_00154017-02
1 77201U 23021GA  26037.47791667  .00000000  00000+0  00000-0 0  9999
2 77201  55.0000 192.0000 0000000   0.0000 282.0000 14.98994923    12
CTC2_L_00154017-03
1 77202U 25377DJ  26037.47791667  .00000000  00000+0  00000-0 0  9996
2 77202  55.0000 192.0000 0000000   0.0000  12.0000 14.98994923    14
CTC2_L_00154017-04
1 77203U 26394GI  26037.47791667  .00000000  00000+0  00000-0 0  9997
2 77203  55.0000 192.0000 0000000   0.0000 102.0000 14.98994923    15
CTC2_L_00154018-01
1 77204U 25569TV  26037.47791667  .00000000  00000+0  00000-0 0  9991
2 77204  55.0000 204.0000 0000000   0.0000 204.0000 14.98994923    13
CTC2_L_00154018-02
1 77205U 24611R   26037.47791667  .00000000  00000+0  00000-0 0  9999
2 77205  55.0000 204.0000 0000000   0.0000 294.0000 14.98994923    13
CTC2_L_00154018-03
1 77206U 22978OY  26037.47791667  .00000000  00000+0  00000-0 0  9994
2 77206  55.0000 204.0000 0000000   0.0000  24.0000 14.98994923    15
CTC2_L_00154018-04
1 77207U 22139QX  26037.47791667  .00000000  00000+0  00000-0 0  9994
2 77207  55.0000 204.0000 0000000   0.0000 114.0000 14.98994923    16
CTC2_L_00154019-01
1 77208U 26796XT  26037.47791667  .00000000  00000+0  00000-0 0  9998
2 77208  55.0000 216.0000 0000000   0.0000 216.0000 14.98994923    13
CTC2_L_00154019-02
1 77209U 24254AO  26037.47791667  .00000000  00000+0  00000-0 0  9996
2 77209  55.0000 216.0000 0000000   0.0000 306.0000 14.98994923    14
CTC2_L_00154019-03
1 77210U 25563GZ  26037.47791667  .00000000  00000+0  00000-0 0  9992
2 77210  55.0000 216.0000 0000000   0.0000  36.0000 14.98994923    16
CTC2_L_00154019-04
1 77211U 23157KZ  26037.47791667  .00000000  00000+0  00000-0 0  9990
2 77211  55.0000 216.0000 0000000   0.0000 126.0000 14.98994923    17
CTC2_L_00154020-01
1 77212U 23533PX  26037.47791667  .00000000  00000+0  00000-0 0  9999
2 77212  55.0000 228.0000 0000000   0.0000 228.0000 14.98994923    14
CTC2_L_00154020-02
1 77213U 25114LZ  26037.47791667  .00000000  00000+0  00000-0 0  9997
2 77213  55.0000 228.0000 0000000   0.0000 318.0000 14.98994923    15
CTC2_L_00154020-03
1 77214U 25465KM  26037.47791667  .00000000  00000+0  00000-0 0  9997
2 77214  55.0000 228.0000 0000000   0.0000  48.0000 14.98994923    16
CTC2_L_00154020-04
1 77215U 25534AV  26037.47791667  .00000000  00000+0  00000-0 0  9995
2 77215  55.0000 228.0000 0000000   0.0000 138.0000 14.98994923    17
CTC2_L_00154021-01
1 77216U 26704OZ  26037.47791667  .00000000  00000+0  00000-0 0  9996
2 77216  55.0000 240.0000 0000000   0.0000 240.0000 14.98994923    16
CTC2_L_00154021-02
1 77217U 22225MZ  26037.47791667  .00000000  00000+0  00000-0 0  9991
2 77217  55.0000 240.0000 0000000   0.0000 330.0000 14.98994923    17
CTC2_L_00154021-03
1 77218U 24998GV  26037.47791667  .00000000  00000+0  00000-0 0  9991
2 77218  55.0000 240.0000 0000000   0.0000  60.0000 14.98994923    18
CTC2_L_00154021-04
1 77219U 25931JS  26037.47791667  .00000000  00000+0  00000-0 0  9990
2 77219  55.0000 240.0000 0000000   0.0000 150.0000 14.98994923    19
CTC2_L_00154022-01
1 77220U 23785IJ  26037.47791667  .00000000  00000+0  00000-0 0  9997
2 77220  55.0000 252.0000 0000000   0.0000 252.0000 14.98994923    17
CTC2_L_00154022-02
1 77221U 22625GT  26037.47791667  .00000000  00000+0  00000-0 0  9990
2 77221  55.0000 252.0000 0000000   0.0000 342.0000 14.98994923    18
CTC2_L_00154022-03
1 77222U 23188CR  26037.47791667  .00000000  00000+0  00000-0 0  9996
2 77222  55.0000 252.0000 0000000   0.0000  72.0000 14.98994923    19
CTC2_L_00154022-04
1 77223U 25012DL  26037.47791667  .00000000  00000+0  00000-0 0  9995
2 77223  55.0000 252.0000 0000000   0.0000 162.0000 14.98994923    10
CTC2_L_00154023-01
1 77224U 26749XH  26037.47791667  .00000000  00000+0  00000-0 0  9994
2 77224  55.0000 264.0000 0000000   0.0000 264.0000 14.98994923    17
CTC2_L_00154023-02
1 77225U 24445LM  26037.47791667  .00000000  00000+0  00000-0 0  9996
2 77225  55.0000 264.0000 0000000   0.0000 354.0000 14.98994923    18
CTC2_L_00154023-03
1 77226U 22008RS  26037.47791667  .00000000  00000+0  00000-0 0  9990
2 77226  55.0000 264.0000 0000000   0.0000  84.0000 14.98994923    19
CTC2_L_00154023-04
1 77227U 24420IP  26037.47791667  .00000000  00000+0  00000-0 0  9991
2 77227  55.0000 264.0000 0000000   0.0000 174.0000 14.98994923    10
CTC2_L_00154024-01
1 77228U 24705GX  26037.47791667  .00000000  00000+0  00000-0 0  9998
2 77228  55.0000 276.0000 0000000   0.0000 276.0000 14.98994923    17
CTC2_L_00154024-02
1 77229U 23534BC  26037.47791667  .00000000  00000+0  00000-0 0  9998
2 77229  55.0000 276.0000 0000000   0.0000   6.0000 14.98994923    19
CTC2_L_00154024-03
1 77230U 22120KZ  26037.47791667  .00000000  00000+0  00000-0 0  9990
2 77230  55.0000 276.0000 0000000   0.0000  96.0000 14.98994923    10
CTC2_L_00154024-04
1 77231U 26327CY  26037.47791667  .00000000  00000+0  00000-0 0  9994
2 77231  55.0000 276.0000 0000000   0.0000 186.0000 14.98994923    11
CTC2_L_00154025-01
1 77232U 22345RH  26037.47791667  .00000000  00000+0  00000-0 0  9991
2 77232  55.0000 288.0000 0000000   0.0000 288.0000 14.98994923    18
CTC2_L_00154025-02
1 77233U 22263FJ  26037.47791667  .00000000  00000+0  00000-0 0  9991
2 77233  55.0000 288.0000 0000000   0.0000  18.0000 14.98994923    10
CTC2_L_00154025-03
1 77234U 24373GZ  26037.47791667  .00000000  00000+0  00000-0 0  9996
2 77234  55.0000 288.0000 0000000   0.0000 108.0000 14.98994923    11
CTC2_L_00154025-04
1 77235U 26918KO  26037.47791667  .00000000  00000+0  00000-0 0  9994
2 77235  55.0000 288.0000 0000000   0.0000 198.0000 14.98994923    11
CTC2_L_00154026-01
1 77236U 23662FF  26037.47791667  .00000000  00000+0  00000-0 0  9998
2 77236  55.0000 300.0000 0000000   0.0000 300.0000 14.98994923    12
CTC2_L_00154026-02
1 77237U 23350FH  26037.47791667  .00000000  00000+0  00000-0 0  9993
2 77237  55.0000 300.0000 0000000   0.0000  30.0000 14.98994923    13
CTC2_L_00154026-03
1 77238U 26361XX  26037.47791667  .00000000  00000+0  00000-0 0  9999
2 77238  55.0000 300.0000 0000000   0.0000 120.0000 14.98994923    14
CTC2_L_00154026-04
1 77239U 24160SX  26037.47791667  .00000000  00000+0  00000-0 0  9995
2 77239  55.0000 300.0000 0000000   0.0000 210.0000 14.98994923    15
CTC2_L_00154027-01
1 77240U 25720KK  26037.47791667  .00000000  00000+0  00000-0 0  9990
2 77240  55.0000 312.0000 0000000   0.0000 312.0000 14.98994923    13
CTC2_L_00154027-02
1 77241U 22119TO  26037.47791667  .00000000  00000+0  00000-0 0  9990
2 77241  55.0000 312.0000 0000000   0.0000  42.0000 14.98994923    14
CTC2_L_00154027-03
1 77242U 26211HZ  26037.47791667  .00000000  00000+0  00000-0 0  9998
2 77242  55.0000 312.0000 0000000   0.0000 132.0000 14.98994923    15
CTC2_L_00154027-04
1 77243U 26477AX  26037.47791667  .00000000  00000+0  00000-0 0  9993
2 77243  55.0000 312.0000 0000000   0.0000 222.0000 14.98994923    16
CTC2_L_00154028-01
1 77244U 25450DL  26037.47791667  .00000000  00000+0  00000-0 0  9994
2 77244  55.0000 324.0000 0000000   0.0000 324.0000 14.98994923    13
CTC2_L_00154028-02
1 77245U 23713NZ  26037.47791667  .00000000  00000+0  00000-0 0  9995
2 77245  55.0000 324.0000 0000000   0.0000  54.0000 14.98994923    14
CTC2_L_00154028-03
1 77246U 24333QF  26037.47791667  .00000000  00000+0  00000-0 0  9995
2 77246  55.0000 324.0000 0000000   0.0000 144.0000 14.98994923    15
CTC2_L_00154028-04
1 77247U 26599WH  26037.47791667  .00000000  00000+0  00000-0 0  9992
2 77247  55.0000 324.0000 0000000   0.0000 234.0000 14.98994923    16
CTC2_L_00154029-01
1 77248U 25039QS  26037.47791667  .00000000  00000+0  00000-0 0  9991
2 77248  55.0000 336.0000 0000000   0.0000 336.0000 14.98994923    13
CTC2_L_00154029-02
1 77249U 25591PH  26037.47791667  .00000000  00000+0  00000-0 0  9995
2 77249  55.0000 336.0000 0000000   0.0000  66.0000 14.98994923    14
CTC2_L_00154029-03
1 77250U 23084WI  26037.47791667  .00000000  00000+0  00000-0 0  9992
2 77250  55.0000 336.0000 0000000   0.0000 156.0000 14.98994923    16
CTC2_L_00154029-04
1 77251U 26569ZX  26037.47791667  .00000000  00000+0  00000-0 0  9994
2 77251  55.0000 336.0000 0000000   0.0000 246.0000 14.98994923    17
CTC2_L_00154030-01
1 77252U 26036OE  26037.47791667  .00000000  00000+0  00000-0 0  9994
2 77252  55.0000 348.0000 0000000   0.0000 348.0000 14.98994923    14
CTC2_L_00154030-02
1 77253U 22373UF  26037.47791667  .00000000  00000+0  00000-0 0  9995
2 77253  55.0000 348.0000 0000000   0.0000  78.0000 14.98994923    15
CTC2_L_00154030-03
1 77254U 26320UU  26037.47791667  .00000000  00000+0  00000-0 0  9992
2 77254  55.0000 348.0000 0000000   0.0000 168.0000 14.98994923    16
CTC2_L_00154030-04
1 77255U 22689MZ  26037.47791667  .00000000  00000+0  00000-0 0  9997
2 77255  55.0000 348.0000 0000000   0.0000 258.0000 14.98994923    17
